{"type": "FeatureCollection", "features": [ {"type": "Feature", "properties": {"norad_id": 37834, "name": "INTELSAT 18 (IS-18)", "group": "intelsat", "lat": 0.02626096995589147, "lon": 63.726959904363746, "alt_km": 35793.90270975819, "timestamp": "2025-12-11T10:53:15.553310+00:00", "meta": {"OBJECT_NAME": "INTELSAT 18 (IS-18)", "OBJECT_ID": "2011-056A", "EPOCH": "2025-12-11T02:22:56.229024", "MEAN_MOTION": 1.00270777, "ECCENTRICITY": 0.0001946, "INCLINATION": 0.0159, "RA_OF_ASC_NODE": 293.7648, "ARG_OF_PERICENTER": 333.2866, "MEAN_ANOMALY": 28.7422, "EPHEMERIS_TYPE": 0, "CLASSIFICATION_TYPE": "U", "NORAD_CAT_ID": 37834, "ELEMENT_SET_NO": 999, "REV_AT_EPOCH": 5192, "BSTAR": 0, "MEAN_MOTION_DOT": 5.8e-07, "MEAN_MOTION_DDOT": 0}, "tle": {"line1": "1 37834U 11056A   25345.09926191  .00000058  00000+0  00000+0 0  9995", "line2": "2 37834   0.0159 293.7648 0001946 333.2866  28.7422  1.00270777 51925"}}, "geometry": {"type": "Point", "coordinates": [63.726959904363746, 0.02626096995589147]}}, {"type": "Feature", "properties": {"norad_id": 38098, "name": "INTELSAT 22 (IS-22)", "group": "intelsat", "lat": -0.010891406597406757, "lon": -44.138472105045466, "alt_km": 35781.47830816979, "timestamp": "2025-12-11T10:53:15.553322+00:00", "meta": {"OBJECT_NAME": "INTELSAT 22 (IS-22)", "OBJECT_ID": "2012-011A", "EPOCH": "2025-12-11T01:52:12.726912", "MEAN_MOTION": 1.00270968, "ECCENTRICITY": 0.0001719, "INCLINATION": 0.0033, "RA_OF_ASC_NODE": 354.8921, "ARG_OF_PERICENTER": 272.6322, "MEAN_ANOMALY": 272.6955, "EPHEMERIS_TYPE": 0, "CLASSIFICATION_TYPE": "U", "NORAD_CAT_ID": 38098, "ELEMENT_SET_NO": 999, "REV_AT_EPOCH": 530, "BSTAR": 0, "MEAN_MOTION_DOT": -5.3e-07, "MEAN_MOTION_DDOT": 0}, "tle": {"line1": "1 38098U 12011A   25345.07792508 -.00000053  00000+0  00000+0 0  9997", "line2": "2 38098   0.0033 354.8921 0001719 272.6322 272.6955  1.00270968  5307"}}, "geometry": {"type": "Point", "coordinates": [-44.138472105045466, -0.010891406597406757]}}, {"type": "Feature", "properties": {"norad_id": 38356, "name": "INTELSAT 19 (IS-19)", "group": "intelsat", "lat": 0.026145725834562494, "lon": 49.757525185570685, "alt_km": 35797.46108401673, "timestamp": "2025-12-11T10:53:15.553334+00:00", "meta": {"OBJECT_NAME": "INTELSAT 19 (IS-19)", "OBJECT_ID": "2012-030A", "EPOCH": "2025-12-11T05:17:38.740992", "MEAN_MOTION": 1.00272125, "ECCENTRICITY": 0.0003469, "INCLINATION": 0.0092, "RA_OF_ASC_NODE": 339.326, "ARG_OF_PERICENTER": 289.0605, "MEAN_ANOMALY": 57.2169, "EPHEMERIS_TYPE": 0, "CLASSIFICATION_TYPE": "U", "NORAD_CAT_ID": 38356, "ELEMENT_SET_NO": 999, "REV_AT_EPOCH": 4856, "BSTAR": 0, "MEAN_MOTION_DOT": -5e-07, "MEAN_MOTION_DDOT": 0}, "tle": {"line1": "1 38356U 12030A   25345.22058728 -.00000050  00000+0  00000+0 0  9998", "line2": "2 38356   0.0092 339.3260 0003469 289.0605  57.2169  1.00272125 48569"}}, "geometry": {"type": "Point", "coordinates": [49.757525185570685, 0.026145725834562494]}}, {"type": "Feature", "properties": {"norad_id": 38740, "name": "INTELSAT 20 (IS-20)", "group": "intelsat", "lat": -0.0008864334311667174, "lon": -47.739724612884416, "alt_km": 35793.4225338059, "timestamp": "2025-12-11T10:53:15.553346+00:00", "meta": {"OBJECT_NAME": "INTELSAT 20 (IS-20)", "OBJECT_ID": "2012-043A", "EPOCH": "2025-12-11T02:03:38.556288", "MEAN_MOTION": 1.00271347, "ECCENTRICITY": 0.0002797, "INCLINATION": 0.0063, "RA_OF_ASC_NODE": 85.143, "ARG_OF_PERICENTER": 99.0256, "MEAN_ANOMALY": 355.3044, "EPHEMERIS_TYPE": 0, "CLASSIFICATION_TYPE": "U", "NORAD_CAT_ID": 38740, "ELEMENT_SET_NO": 999, "REV_AT_EPOCH": 4886, "BSTAR": 0, "MEAN_MOTION_DOT": -1.9e-07, "MEAN_MOTION_DDOT": 0}, "tle": {"line1": "1 38740U 12043A   25345.08586292 -.00000019  00000+0  00000+0 0  9990", "line2": "2 38740   0.0063  85.1430 0002797  99.0256 355.3044  1.00271347 48865"}}, "geometry": {"type": "Point", "coordinates": [-47.739724612884416, -0.0008864334311667174]}}, {"type": "Feature", "properties": {"norad_id": 38749, "name": "INTELSAT 21 (IS-21)", "group": "intelsat", "lat": 0.007569931570783276, "lon": -174.30561976796324, "alt_km": 35784.097541936244, "timestamp": "2025-12-11T10:53:15.553359+00:00", "meta": {"OBJECT_NAME": "INTELSAT 21 (IS-21)", "OBJECT_ID": "2012-045A", "EPOCH": "2025-12-11T02:57:45.393120", "MEAN_MOTION": 1.00269979, "ECCENTRICITY": 0.0002071, "INCLINATION": 0.0201, "RA_OF_ASC_NODE": 57.3275, "ARG_OF_PERICENTER": 201.6078, "MEAN_ANOMALY": 167.587, "EPHEMERIS_TYPE": 0, "CLASSIFICATION_TYPE": "U", "NORAD_CAT_ID": 38749, "ELEMENT_SET_NO": 999, "REV_AT_EPOCH": 4863, "BSTAR": 0, "MEAN_MOTION_DOT": -2.79e-06, "MEAN_MOTION_DDOT": 0}, "tle": {"line1": "1 38749U 12045A   25345.12344205 -.00000279  00000+0  00000+0 0  9990", "line2": "2 38749   0.0201  57.3275 0002071 201.6078 167.5870  1.00269979 48637"}}, "geometry": {"type": "Point", "coordinates": [-174.30561976796324, 0.007569931570783276]}}, {"type": "Feature", "properties": {"norad_id": 38867, "name": "INTELSAT 23 (IS-23)", "group": "intelsat", "lat": 0.0320370212225673, "lon": -169.38514274035714, "alt_km": 35781.08999865751, "timestamp": "2025-12-11T10:53:15.553371+00:00", "meta": {"OBJECT_NAME": "INTELSAT 23 (IS-23)", "OBJECT_ID": "2012-057A", "EPOCH": "2025-12-09T20:10:10.491744", "MEAN_MOTION": 1.00260311, "ECCENTRICITY": 0.00020064, "INCLINATION": 0.0432, "RA_OF_ASC_NODE": 94.7791, "ARG_OF_PERICENTER": 102.2636, "MEAN_ANOMALY": 131.2856, "EPHEMERIS_TYPE": 0, "CLASSIFICATION_TYPE": "U", "NORAD_CAT_ID": 38867, "ELEMENT_SET_NO": 999, "REV_AT_EPOCH": 4805, "BSTAR": 0, "MEAN_MOTION_DOT": -2.82e-06, "MEAN_MOTION_DDOT": 0}, "tle": {"line1": "1 38867U 12057A   25343.84039921 -.00000282  00000+0  00000+0 0  9991", "line2": "2 38867   0.0432  94.7791 0002006 102.2636 131.2856  1.00260311 48055"}}, "geometry": {"type": "Point", "coordinates": [-169.38514274035714, 0.0320370212225673]}}, {"type": "Feature", "properties": {"norad_id": 39360, "name": "FM-6", "group": "intelsat", "lat": 0.008793288901579746, "lon": 127.53836641675952, "alt_km": 35778.413562927766, "timestamp": "2025-12-11T10:53:15.553383+00:00", "meta": {"OBJECT_NAME": "FM-6", "OBJECT_ID": "2013-058A", "EPOCH": "2025-12-10T23:15:42.717888", "MEAN_MOTION": 1.00269361, "ECCENTRICITY": 0.0002856, "INCLINATION": 0.0087, "RA_OF_ASC_NODE": 66.7059, "ARG_OF_PERICENTER": 106.8032, "MEAN_ANOMALY": 139.1966, "EPHEMERIS_TYPE": 0, "CLASSIFICATION_TYPE": "U", "NORAD_CAT_ID": 39360, "ELEMENT_SET_NO": 999, "REV_AT_EPOCH": 4418, "BSTAR": 0, "MEAN_MOTION_DOT": -1.1e-07, "MEAN_MOTION_DDOT": 0}, "tle": {"line1": "1 39360U 13058A   25344.96924442 -.00000011  00000+0  00000+0 0  9997", "line2": "2 39360   0.0087  66.7059 0002856 106.8032 139.1966  1.00269361 44182"}}, "geometry": {"type": "Point", "coordinates": [127.53836641675952, 0.008793288901579746]}}, {"type": "Feature", "properties": {"norad_id": 40271, "name": "INTELSAT 30 (IS-30)", "group": "intelsat", "lat": 0.019716461218383694, "lon": 148.666259995842, "alt_km": 35784.699642112995, "timestamp": "2025-12-11T10:53:15.553395+00:00", "meta": {"OBJECT_NAME": "INTELSAT 30 (IS-30)", "OBJECT_ID": "2014-062A", "EPOCH": "2025-12-10T19:56:16.820736", "MEAN_MOTION": 1.00269622, "ECCENTRICITY": 0.0001301, "INCLINATION": 0.0174, "RA_OF_ASC_NODE": 29.1064, "ARG_OF_PERICENTER": 50.969, "MEAN_ANOMALY": 203.7271, "EPHEMERIS_TYPE": 0, "CLASSIFICATION_TYPE": "U", "NORAD_CAT_ID": 40271, "ELEMENT_SET_NO": 999, "REV_AT_EPOCH": 489, "BSTAR": 0, "MEAN_MOTION_DOT": -1.46e-06, "MEAN_MOTION_DDOT": 0}, "tle": {"line1": "1 40271U 14062A   25344.83075024 -.00000146  00000+0  00000+0 0  9994", "line2": "2 40271   0.0174  29.1064 0001301  50.9690 203.7271  1.00269622  4895"}}, "geometry": {"type": "Point", "coordinates": [148.666259995842, 0.019716461218383694]}}, {"type": "Feature", "properties": {"norad_id": 40333, "name": "DIRECTV 14", "group": "intelsat", "lat": 0.00291231568506037, "lon": 144.50380233029512, "alt_km": 35784.764655091545, "timestamp": "2025-12-11T10:53:15.553407+00:00", "meta": {"OBJECT_NAME": "DIRECTV 14", "OBJECT_ID": "2014-078B", "EPOCH": "2025-12-10T23:20:34.750752", "MEAN_MOTION": 1.00270629, "ECCENTRICITY": 5.24e-05, "INCLINATION": 0.0172, "RA_OF_ASC_NODE": 324.7094, "ARG_OF_PERICENTER": 220.9679, "MEAN_ANOMALY": 145.1924, "EPHEMERIS_TYPE": 0, "CLASSIFICATION_TYPE": "U", "NORAD_CAT_ID": 40333, "ELEMENT_SET_NO": 999, "REV_AT_EPOCH": 4015, "BSTAR": 0, "MEAN_MOTION_DOT": -1.2e-06, "MEAN_MOTION_DDOT": 0}, "tle": {"line1": "1 40333U 14078B   25344.97262443 -.00000120  00000+0  00000+0 0  9990", "line2": "2 40333   0.0172 324.7094 0000524 220.9679 145.1924  1.00270629 40153"}}, "geometry": {"type": "Point", "coordinates": [144.50380233029512, 0.00291231568506037]}}, {"type": "Feature", "properties": {"norad_id": 40663, "name": "DIRECTV 15", "group": "intelsat", "lat": 0.03662794784777326, "lon": 140.85852231868776, "alt_km": 35786.190732529256, "timestamp": "2025-12-11T10:53:15.553419+00:00", "meta": {"OBJECT_NAME": "DIRECTV 15", "OBJECT_ID": "2015-026A", "EPOCH": "2025-12-10T23:19:34.847040", "MEAN_MOTION": 1.00272611, "ECCENTRICITY": 2.21e-05, "INCLINATION": 0.0411, "RA_OF_ASC_NODE": 85.4129, "ARG_OF_PERICENTER": 166.5843, "MEAN_ANOMALY": 74.9718, "EPHEMERIS_TYPE": 0, "CLASSIFICATION_TYPE": "U", "NORAD_CAT_ID": 40663, "ELEMENT_SET_NO": 999, "REV_AT_EPOCH": 3857, "BSTAR": 0, "MEAN_MOTION_DOT": -9.7e-07, "MEAN_MOTION_DDOT": 0}, "tle": {"line1": "1 40663U 15026A   25344.97193110 -.00000097  00000+0  00000+0 0  9997", "line2": "2 40663   0.0411  85.4129 0000221 166.5843  74.9718  1.00272611 38573"}}, "geometry": {"type": "Point", "coordinates": [140.85852231868776, 0.03662794784777326]}}]}